NORAD_CAT_ID,OBJECT_NAME,OBJECT_TYPE,EPOCH,MEAN_MOTION,ECCENTRICITY,INCLINATION,RA_OF_ASC_NODE,ARG_OF_PERICENTER,MEAN_ANOMALY,BSTAR,MEAN_MOTION_DOT,MEAN_MOTION_DDOT,TLE_LINE0,TLE_LINE1,TLE_LINE2,SEMIMAJOR_AXIS,PERIOD,APOGEE,PERIGEE,DECAYED
51781.0,STARLINK-3580,PAYLOAD,2023-11-23 18:28:08,15.0883319,0.0001546,53.217,136.1613,108.8795,251.2365,-1.3415e-05,-5.01e-06,0.0,0 STARLINK-3580,1 51781U 22017P   23327.76953880 -.00000501  00000-0 -13415-4 0  9993,2 51781  53.2170 136.1613 0001546 108.8795 251.2365 15.08833190 96071,6917.901,95.438,540.836,538.697,0.0
51781.0,STARLINK-3580,PAYLOAD,2023-11-24 10:21:59,15.08788701,0.0001872,53.2167,133.1867,115.7922,244.3263,0.00060945,9.411e-05,0.0,0 STARLINK-3580,1 51781U 22017P   23328.43193937  .00009411  00000-0  60945-3 0  9993,2 51781  53.2167 133.1867 0001872 115.7922 244.3263 15.08788701 97827,6918.037,95.441,541.197,538.607,0.0
51781.0,STARLINK-3580,PAYLOAD,2023-11-24 19:54:17,15.08831441,0.0001566,53.2168,131.4032,104.7585,255.3581,0.00033839,5.1e-05,0.0,0 STARLINK-3580,1 51781U 22017P   23328.82937267  .00005100  00000-0  33839-3 0  9991,2 51781  53.2168 131.4032 0001566 104.7585 255.3581 15.08831441 97887,6917.907,95.438,540.855,538.688,0.0
51781.0,STARLINK-3580,PAYLOAD,2023-11-24 21:29:40,15.08851034,0.000143,53.2168,131.1057,101.0917,259.0236,8.7711e-05,1.109e-05,0.0,0 STARLINK-3580,1 51781U 22017P   23328.89560749  .00001109  00000-0  87711-4 0  9999,2 51781  53.2168 131.1057 0001430 101.0917 259.0236 15.08851034 96247,6917.847,95.437,540.701,538.722,0.0
51781.0,STARLINK-3580,PAYLOAD,2023-11-25 19:45:04,15.08844987,0.0001522,53.2172,126.9412,103.9804,256.1357,0.00013916,1.928e-05,0.0,0 STARLINK-3580,1 51781U 22017P   23329.82297112  .00001928  00000-0  13916-3 0  9998,2 51781  53.2172 126.9412 0001522 103.9804 256.1357 15.08844987 96383,6917.865,95.437,540.783,538.677,0.0
51781.0,STARLINK-3580,PAYLOAD,2023-11-26 10:03:33,15.08844636,0.0001628,53.2169,124.2665,111.5325,248.5841,5.9731e-05,6.63e-06,0.0,0 STARLINK-3580,1 51781U 22017P   23330.41913201  .00000663  00000-0  59731-4 0  9990,2 51781  53.2169 124.2665 0001628 111.5325 248.5841 15.08844636 96474,6917.866,95.437,540.857,538.605,0.0
51781.0,STARLINK-3580,PAYLOAD,2023-11-26 16:25:05,15.08846133,0.00015,53.2176,123.0785,96.9603,263.156,6.1396e-05,6.89e-06,0.0,0 STARLINK-3580,1 51781U 22017P   23330.68409072  .00000689  00000-0  61396-4 0  9993,2 51781  53.2176 123.0785 0001500  96.9603 263.1560 15.08846133 96516,6917.862,95.437,540.764,538.689,0.0
51781.0,STARLINK-3580,PAYLOAD,2023-11-27 09:54:20,15.08836382,0.0001572,53.217,119.8088,90.7677,269.3495,5.2316e-06,-2.05e-06,0.0,0 STARLINK-3580,1 51781U 22017P   23331.41273771 -.00000205  00000-0  52316-5 0  9998,2 51781  53.2170 119.8088 0001572  90.7677 269.3495 15.08836382 98276,6917.891,95.438,540.844,538.669,0.0
51781.0,STARLINK-3580,PAYLOAD,2023-11-27 14:40:30,15.08838424,0.0001546,53.2169,118.9139,94.1322,265.9846,-5.1934e-05,-1.114e-05,0.0,0 STARLINK-3580,1 51781U 22017P   23331.61145882 -.00001114  00000-0 -51934-4 0  9996,2 51781  53.2169 118.9139 0001546  94.1322 265.9846 15.08838424 96658,6917.885,95.438,540.82,538.681,0.0
51781.0,STARLINK-3580,PAYLOAD,2023-11-27 16:15:53,15.08836906,0.0001542,53.2177,118.6175,99.9764,260.1402,-4.6409e-05,-1.026e-05,0.0,0 STARLINK-3580,1 51781U 22017P   23331.67769946 -.00001026  00000-0 -46409-4 0  9998,2 51781  53.2177 118.6175 0001542  99.9764 260.1402 15.08836906 96662,6917.89,95.438,540.822,538.688,0.0
51781.0,STARLINK-3580,PAYLOAD,2023-11-28 14:31:16,15.08843757,0.0001391,53.2175,114.4547,90.9375,269.1776,2.3892e-05,9.2e-07,0.0,0 STARLINK-3580,1 51781U 22017P   23332.60505506  .00000092  00000-0  23892-4 0  9993,2 51781  53.2175 114.4547 0001391  90.9375 269.1776 15.08843757 96809,6917.869,95.437,540.696,538.772,0.0
51781.0,STARLINK-3580,PAYLOAD,2023-11-28 16:06:39,15.08845657,0.0001219,53.2162,114.157,66.7627,293.3494,4.6558e-05,4.53e-06,0.0,0 STARLINK-3580,1 51781U 22017P   23332.67129366  .00000453  00000-0  46558-4 0  9991,2 51781  53.2162 114.1570 0001219  66.7627 293.3494 15.08845657 98469,6917.863,95.437,540.571,538.885,0.0
51781.0,STARLINK-3580,PAYLOAD,2023-11-29 12:46:41,15.0883673,0.0001323,53.2166,110.2913,82.5896,277.5247,0.0001054,1.39e-05,0.0,0 STARLINK-3580,1 51781U 22017P   23333.53241905  .00001390  00000-0  10540-3 0  9993,2 51781  53.2166 110.2913 0001323  82.5896 277.5247 15.08836730 98597,6917.89,95.438,540.671,538.84,0.0
51781.0,STARLINK-3580,PAYLOAD,2023-11-29 14:22:03,15.08840035,0.0001217,53.2166,109.9922,85.6394,274.4737,0.00011212,1.497e-05,0.0,0 STARLINK-3580,1 51781U 22017P   23333.59865685  .00001497  00000-0  11212-3 0  9991,2 51781  53.2166 109.9922 0001217  85.6394 274.4737 15.08840035 96952,6917.88,95.438,540.587,538.903,0.0
51781.0,STARLINK-3580,PAYLOAD,2023-11-30 14:12:51,15.08839141,0.0001267,53.2166,105.5323,91.9107,268.203,5.4184e-06,-2.02e-06,0.0,0 STARLINK-3580,1 51781U 22017P   23334.59226328 -.00000202  00000-0  54184-5 0  9998,2 51781  53.2166 105.5323 0001267  91.9107 268.2030 15.08839141 98759,6917.883,95.438,540.625,538.872,0.0
51781.0,STARLINK-3580,PAYLOAD,2023-12-01 14:03:38,15.08843203,0.0001413,53.2178,101.072,64.2931,295.8207,4.7024e-05,4.61e-06,0.0,0 STARLINK-3580,1 51781U 22017P   23335.58586175  .00000461  00000-0  47024-4 0  9997,2 51781  53.2178 101.0720 0001413  64.2931 295.8207 15.08843203 97255,6917.871,95.437,540.713,538.758,0.0
51781.0,STARLINK-3580,PAYLOAD,2023-12-02 12:19:00,15.08855586,0.0001382,53.2169,96.9141,92.1028,268.0122,0.00025543,3.781e-05,0.0,0 STARLINK-3580,1 51781U 22017P   23336.51320476  .00003781  00000-0  25543-3 0  9990,2 51781  53.2169  96.9141 0001382  92.1028 268.0122 15.08855586 99040,6917.833,95.437,540.654,538.742,0.0
51781.0,STARLINK-3580,PAYLOAD,2023-12-02 13:54:23,15.0887014,0.0001237,53.2165,96.6106,102.446,257.6671,0.00043935,6.717e-05,0.0,0 STARLINK-3580,1 51781U 22017P   23336.57944029  .00006717  00000-0  43935-3 0  9999,2 51781  53.2165  96.6106 0001237 102.4460 257.6671 15.08870140 97402,6917.788,95.436,540.509,538.798,0.0
51781.0,STARLINK-3580,PAYLOAD,2023-12-02 15:29:50,15.08814989,0.0001364,53.2169,96.3156,77.1481,282.9664,-0.00012469,-2.27e-05,0.0,0 STARLINK-3580,1 51781U 22017P   23336.64571787 -.00002270  00000-0 -12469-3 0  9994,2 51781  53.2169  96.3156 0001364  77.1481 282.9664 15.08814989 99066,6917.957,95.439,540.765,538.878,0.0
51781.0,STARLINK-3580,PAYLOAD,2023-12-03 13:45:15,15.08813848,0.000171,53.2182,92.1517,68.6238,291.4937,-0.00024346,-4.158e-05,0.0,0 STARLINK-3580,1 51781U 22017P   23337.57309732 -.00004158  00000-0 -24346-3 0  9990,2 51781  53.2182  92.1517 0001710  68.6238 291.4937 15.08813848 97559,6917.96,95.439,541.008,538.642,0.0
51781.0,STARLINK-3580,PAYLOAD,2023-12-04 12:00:37,15.08841534,0.0001418,53.2181,87.9933,69.2802,290.8342,-6.7164e-05,-1.357e-05,0.0,0 STARLINK-3580,1 51781U 22017P   23338.50043891 -.00001357  00000-0 -67164-4 0  9999,2 51781  53.2181  87.9933 0001418  69.2802 290.8342 15.08841534 99346,6917.876,95.437,540.722,538.76,0.0
51781.0,STARLINK-3580,PAYLOAD,2023-12-04 16:46:46,15.08854925,0.0001496,53.2184,87.0962,108.7912,251.3242,-2.0904e-05,-6.21e-06,0.0,0 STARLINK-3580,1 51781U 22017P   23338.69914592 -.00000621  00000-0 -20904-4 0  9998,2 51781  53.2184  87.0962 0001496 108.7912 251.3242 15.08854925 99371,6917.835,95.437,540.735,538.665,0.0
51781.0,STARLINK-3580,PAYLOAD,2023-12-05 11:51:24,15.08840408,0.0001719,53.2184,83.5307,82.5733,277.5455,0.00046747,7.16e-05,0.0,0 STARLINK-3580,1 51781U 22017P   23339.49402947  .00007160  00000-0  46747-3 0  9998,2 51781  53.2184  83.5307 0001719  82.5733 277.5455 15.08840408 99493,6917.879,95.438,540.933,538.555,0.0
51781.0,STARLINK-3580,PAYLOAD,2023-12-05 13:26:47,15.08843946,0.000166,53.2196,83.2329,85.7853,274.3329,0.00047364,7.259e-05,0.0,0 STARLINK-3580,1 51781U 22017P   23339.56026797  .00007259  00000-0  47364-3 0  9996,2 51781  53.2196  83.2329 0001660  85.7853 274.3329 15.08843946 97853,6917.868,95.437,540.882,538.585,0.0
51781.0,STARLINK-3580,PAYLOAD,2023-12-06 11:42:11,15.0884965,0.0001472,53.2185,79.0685,86.5456,273.5705,1.3823e-05,-6.8e-07,0.0,0 STARLINK-3580,1 51781U 22017P   23340.48763253 -.00000068  00000-0  13823-4 0  9990,2 51781  53.2185  79.0685 0001472  86.5456 273.5705 15.08849650 99644,6917.851,95.437,540.734,538.698,0.0
51781.0,STARLINK-3580,PAYLOAD,2023-12-06 13:17:34,15.08848514,0.0001484,53.2185,78.7711,90.8289,269.2873,5.4954e-06,-2.01e-06,0.0,0 STARLINK-3580,1 51781U 22017P   23340.55387259 -.00000201  00000-0  54954-5 0  9996,2 51781  53.2185  78.7711 0001484  90.8289 269.2873 15.08848514 98000,6917.854,95.437,540.746,538.693,0.0
51781.0,STARLINK-3580,PAYLOAD,2023-12-07 13:08:21,15.08848194,0.0001508,53.2189,74.3115,91.1567,268.9598,-0.00012822,-2.329e-05,0.0,0 STARLINK-3580,1 51781U 22017P   23341.54747131 -.00002329  00000-0 -12822-3 0  9995,2 51781  53.2189  74.3115 0001508  91.1567 268.9598 15.08848194 98154,6917.855,95.437,540.764,538.677,0.0
51781.0,STARLINK-3580,PAYLOAD,2023-12-08 12:59:08,15.08836735,0.0001563,53.2189,69.8525,100.5287,259.5881,5.3171e-05,5.58e-06,0.0,0 STARLINK-3580,1 51781U 22017P   23342.54107151  .00000558  00000-0  53171-4 0  9991,2 51781  53.2189  69.8525 0001563 100.5287 259.5881 15.08836735 98309,6917.89,95.438,540.837,538.674,0.0
51781.0,STARLINK-3580,PAYLOAD,2023-12-08 16:09:54,15.08840233,0.0001461,53.2179,69.255,97.9136,262.2022,6.5441e-05,7.54e-06,0.0,0 STARLINK-3580,1 51781U 22017P   23342.67354878  .00000754  00000-0  65441-4 0  9996,2 51781  53.2179  69.2550 0001461  97.9136 262.2022 15.08840233 99979,6917.88,95.438,540.755,538.734,0.0
51781.0,STARLINK-3580,PAYLOAD,2023-12-09 11:14:32,15.08836459,0.000139,53.2179,65.6839,90.4685,269.6467,1.6011e-05,-3.3e-07,0.0,0 STARLINK-3580,1 51781U 22017P   23343.46843547 -.00000033  00000-0  16011-4 0  9990,2 51781  53.2179  65.6839 0001390  90.4685 269.6467 15.08836459100092,6917.891,95.438,540.718,538.795,0.0
